COSMOS 2503             
1 40420U 15009A   26068.69626972  .00002817  00000+0  19590-3 0  9998
2 40420  97.8437 123.7175 0015321 225.7450 134.2520 15.06275973603958
STARLINK-4107           
1 53287U 22086AX  26068.58543194  .00000247  00000+0  33589-4 0  9998
2 53287  53.2173 184.5907 0001371  80.5395 279.5752 15.08839066201178
